{
  "norad_id": 62646,
  "name": "FLOCK 4G-25",
  "history": [
    {
      "epoch": "2026-03-28T19:22:19.596000",
      "apogee_km": 483.45099547547215,
      "perigee_km": 481.0735927040996,
      "latitude_deg": 31.345974624705672,
      "longitude_deg": 162.08844000007957,
      "semi_major_axis_km": 6860.399294089786,
      "eccentricity": 0.00017327,
      "inclination_deg": 97.4036,
      "raan_deg": 170.3445,
      "arg_perigee_deg": 183.6719,
      "mean_anomaly_deg": 176.4508,
      "mean_motion_rev_day": 15.27842799
    },
    {
      "epoch": "2026-03-29T04:48:11.461824",
      "apogee_km": 483.4183132321932,
      "perigee_km": 481.01718906929,
      "latitude_deg": 31.677318498594307,
      "longitude_deg": -160.18726463988423,
      "semi_major_axis_km": 6860.354751150741,
      "eccentricity": 0.000175,
      "inclination_deg": 97.4036,
      "raan_deg": 170.7348,
      "arg_perigee_deg": 182.2673,
      "mean_anomaly_deg": 177.8559,
      "mean_motion_rev_day": 15.27857679
    }
  ]
}